{
  "type": "FeatureCollection",
  "features": [
    {
      "type": "Feature",
      "properties": {
        "norad_id": 66659,
        "name": "JACK K",
        "group": "last-30-days",
        "lat": 16.85649571219285,
        "lon": 87.18481528001647,
        "alt_km": 597.7863992585553,
        "timestamp": "2025-12-03T10:52:56.223602+00:00",
        "meta_object_name": "JACK K",
        "meta_object_id": "2025-274K",
        "meta_epoch": "2025-12-03T02:06:36.852192",
        "meta_mean_motion": 14.92715664,
        "meta_eccentricity": 0.0012486,
        "meta_inclination": 97.7381,
        "meta_ra_of_asc_node": 264.4643,
        "meta_arg_of_pericenter": 316.5882,
        "meta_mean_anomaly": 43.4353,
        "meta_ephemeris_type": 0,
        "meta_classification_type": "U",
        "meta_norad_cat_id": 66659,
        "meta_element_set_no": 999,
        "meta_rev_at_epoch": 96,
        "meta_bstar": 0.00047068,
        "meta_mean_motion_dot": 4.809e-05,
        "meta_mean_motion_ddot": 0,
        "tle_line1": "1 66659U 25274K   25337.08792653  .00004809  00000+0  47068-3 0  9990",
        "tle_line2": "2 66659  97.7381 264.4643 0012486 316.5882  43.4353 14.92715664   964"
      },
      "geometry": {
        "type": "Point",
        "coordinates": [
          87.18481528001647,
          16.85649571219285
        ]
      }
    },
    {
      "type": "Feature",
      "properties": {
        "norad_id": 66660,
        "name": "K-HERO",
        "group": "last-30-days",
        "lat": 13.254892627415618,
        "lon": 86.66101893828566,
        "alt_km": 598.0170111764355,
        "timestamp": "2025-12-03T10:52:56.223613+00:00",
        "meta_object_name": "K-HERO",
        "meta_object_id": "2025-274L",
        "meta_epoch": "2025-12-03T02:05:41.370432",
        "meta_mean_motion": 14.92867452,
        "meta_eccentricity": 0.0013114,
        "meta_inclination": 97.7385,
        "meta_ra_of_asc_node": 264.4654,
        "meta_arg_of_pericenter": 317.1645,
        "meta_mean_anomaly": 42.8552,
        "meta_ephemeris_type": 0,
        "meta_classification_type": "U",
        "meta_norad_cat_id": 66660,
        "meta_element_set_no": 999,
        "meta_rev_at_epoch": 96,
        "meta_bstar": 0.00049939,
        "meta_mean_motion_dot": 5.127e-05,
        "meta_mean_motion_ddot": 0,
        "tle_line1": "1 66660U 25274L   25337.08728438  .00005127  00000+0  49939-3 0  9995",
        "tle_line2": "2 66660  97.7385 264.4654 0013114 317.1645  42.8552 14.92867452   962"
      },
      "geometry": {
        "type": "Point",
        "coordinates": [
          86.66101893828566,
          13.254892627415618
        ]
      }
    },
    {
      "type": "Feature",
      "properties": {
        "norad_id": 66661,
        "name": "SNUGLITE-III",
        "group": "last-30-days",
        "lat": 9.534725586705276,
        "lon": 86.13557105059043,
        "alt_km": 598.2570552539391,
        "timestamp": "2025-12-03T10:52:56.223622+00:00",
        "meta_object_name": "SNUGLITE-III",
        "meta_object_id": "2025-274M",
        "meta_epoch": "2025-12-03T00:28:13.384704",
        "meta_mean_motion": 14.93016312,
        "meta_eccentricity": 0.0013821,
        "meta_inclination": 97.7382,
        "meta_ra_of_asc_node": 264.4002,
        "meta_arg_of_pericenter": 318.0542,
        "meta_mean_anomaly": 41.9618,
        "meta_ephemeris_type": 0,
        "meta_classification_type": "U",
        "meta_norad_cat_id": 66661,
        "meta_element_set_no": 999,
        "meta_rev_at_epoch": 95,
        "meta_bstar": 0.00039123,
        "meta_mean_motion_dot": 4.019e-05,
        "meta_mean_motion_ddot": 0,
        "tle_line1": "1 66661U 25274M   25337.01959936  .00004019  00000+0  39123-3 0  9991",
        "tle_line2": "2 66661  97.7382 264.4002 0013821 318.0542  41.9618 14.93016312   952"
      },
      "geometry": {
        "type": "Point",
        "coordinates": [
          86.13557105059043,
          9.534725586705276
        ]
      }
    },
    {
      "type": "Feature",
      "properties": {
        "norad_id": 66662,
        "name": "2025-274N",
        "group": "last-30-days",
        "lat": 7.902825064872319,
        "lon": 85.90914908075578,
        "alt_km": 598.3187171136087,
        "timestamp": "2025-12-03T10:52:56.223632+00:00",
        "meta_object_name": "2025-274N",
        "meta_object_id": "2025-274N",
        "meta_epoch": "2025-12-02T18:01:47.108352",
        "meta_mean_motion": 14.93076371,
        "meta_eccentricity": 0.0014234,
        "meta_inclination": 97.7381,
        "meta_ra_of_asc_node": 264.137,
        "meta_arg_of_pericenter": 318.3075,
        "meta_mean_anomaly": 41.7058,
        "meta_ephemeris_type": 0,
        "meta_classification_type": "U",
        "meta_norad_cat_id": 66662,
        "meta_element_set_no": 999,
        "meta_rev_at_epoch": 91,
        "meta_bstar": 0.00028428,
        "meta_mean_motion_dot": 2.909e-05,
        "meta_mean_motion_ddot": 0,
        "tle_line1": "1 66662U 25274N   25336.75123968  .00002909  00000+0  28428-3 0  9992",
        "tle_line2": "2 66662  97.7381 264.1370 0014234 318.3075  41.7058 14.93076371   913"
      },
      "geometry": {
        "type": "Point",
        "coordinates": [
          85.90914908075578,
          7.902825064872319
        ]
      }
    },
    {
      "type": "Feature",
      "properties": {
        "norad_id": 66663,
        "name": "KSLV-II R/B",
        "group": "last-30-days",
        "lat": -79.98639728489049,
        "lon": -44.73030638951501,
        "alt_km": 573.8778915512294,
        "timestamp": "2025-12-03T10:52:56.223642+00:00",
        "meta_object_name": "KSLV-II R/B",
        "meta_object_id": "2025-274P",
        "meta_epoch": "2025-12-02T09:35:20.901408",
        "meta_mean_motion": 14.972028,
        "meta_eccentricity": 0.00441352,
        "meta_inclination": 97.7406,
        "meta_ra_of_asc_node": 263.8419,
        "meta_arg_of_pericenter": 353.0151,
        "meta_mean_anomaly": 7.045,
        "meta_ephemeris_type": 0,
        "meta_classification_type": "U",
        "meta_norad_cat_id": 66663,
        "meta_element_set_no": 999,
        "meta_rev_at_epoch": 86,
        "meta_bstar": -0.00028812216,
        "meta_mean_motion_dot": -3.459e-05,
        "meta_mean_motion_ddot": 0,
        "tle_line1": "1 66663U 25274P   25336.39954747 -.00003459  00000+0 -28812-3 0  9990",
        "tle_line2": "2 66663  97.7406 263.8419 0044135 353.0151   7.0450 14.97202800   863"
      },
      "geometry": {
        "type": "Point",
        "coordinates": [
          -44.73030638951501,
          -79.98639728489049
        ]
      }
    },
    {
      "type": "Feature",
      "properties": {
        "norad_id": 66664,
        "name": "SOYUZ-MS 28",
        "group": "last-30-days",
        "lat": 27.957495558366812,
        "lon": -146.6810940662646,
        "alt_km": 417.73796552874774,
        "timestamp": "2025-12-03T10:52:56.223653+00:00",
        "meta_object_name": "SOYUZ-MS 28",
        "meta_object_id": "2025-275A",
        "meta_epoch": "2025-12-02T22:20:22.303680",
        "meta_mean_motion": 15.49259436,
        "meta_eccentricity": 0.0003627,
        "meta_inclination": 51.631,
        "meta_ra_of_asc_node": 191.0402,
        "meta_arg_of_pericenter": 198.2346,
        "meta_mean_anomaly": 161.8513,
        "meta_ephemeris_type": 0,
        "meta_classification_type": "U",
        "meta_norad_cat_id": 66664,
        "meta_element_set_no": 999,
        "meta_rev_at_epoch": 92,
        "meta_bstar": 0.00022507,
        "meta_mean_motion_dot": 0.00012082,
        "meta_mean_motion_ddot": 0,
        "tle_line1": "1 66664U 25275A   25336.93081370  .00012082  00000+0  22507-3 0  9990",
        "tle_line2": "2 66664  51.6310 191.0402 0003627 198.2346 161.8513 15.49259436   928"
      },
      "geometry": {
        "type": "Point",
        "coordinates": [
          -146.6810940662646,
          27.957495558366812
        ]
      }
    },
    {
      "type": "Feature",
      "properties": {
        "norad_id": 66820,
        "name": "KOMPSAT-7",
        "group": "last-30-days",
        "lat": -38.37178227764067,
        "lon": -70.37859752203794,
        "alt_km": 576.4063782678477,
        "timestamp": "2025-12-03T10:52:56.223668+00:00",
        "meta_object_name": "KOMPSAT-7",
        "meta_object_id": "2025-279A",
        "meta_epoch": "2025-12-01T20:35:16.060992",
        "meta_mean_motion": 14.98310631,
        "meta_eccentricity": 0.00097501,
        "meta_inclination": 97.6394,
        "meta_ra_of_asc_node": 281.9587,
        "meta_arg_of_pericenter": 255.3935,
        "meta_mean_anomaly": 104.6207,
        "meta_ephemeris_type": 0,
        "meta_classification_type": "U",
        "meta_norad_cat_id": 66820,
        "meta_element_set_no": 999,
        "meta_rev_at_epoch": 2,
        "meta_bstar": 8.4407298e-05,
        "meta_mean_motion_dot": 9.47e-06,
        "meta_mean_motion_ddot": 0,
        "tle_line1": "1 66820U 25279A   25335.85782478  .00000947  00000+0  84407-4 0  9990",
        "tle_line2": "2 66820  97.6394 281.9587 0009750 255.3935 104.6207 14.98310631    23"
      },
      "geometry": {
        "type": "Point",
        "coordinates": [
          -70.37859752203794,
          -38.37178227764067
        ]
      }
    }
  ]
}